[{"OBJECT_NAME":"STARLINK-2481","OBJECT_ID":"2021-027AY","EPOCH":"2026-03-09T14:15:27.294624","MEAN_MOTION":15.30220377,"ECCENTRICITY":0.0001377,"INCLINATION":53.1608,"RA_OF_ASC_NODE":168.2401,"ARG_OF_PERICENTER":84.9717,"MEAN_ANOMALY":275.1441,"EPHEMERIS_TYPE":0,"CLASSIFICATION_TYPE":"U","NORAD_CAT_ID":48138,"ELEMENT_SET_NO":999,"REV_AT_EPOCH":27246,"BSTAR":0.00052293,"MEAN_MOTION_DOT":0.0001517,"MEAN_MOTION_DDOT":0},{"OBJECT_NAME":"239ALFEROV (RS61S)","OBJECT_ID":"2025-155F","EPOCH":"2026-03-09T21:46:33.382848","MEAN_MOTION":15.29933217,"ECCENTRICITY":0.00084878,"INCLINATION":97.4469,"RA_OF_ASC_NODE":37.6373,"ARG_OF_PERICENTER":151.5904,"MEAN_ANOMALY":208.58,"EPHEMERIS_TYPE":0,"CLASSIFICATION_TYPE":"U","NORAD_CAT_ID":64881,"ELEMENT_SET_NO":999,"REV_AT_EPOCH":6561,"BSTAR":0.00067233359,"MEAN_MOTION_DOT":0.00019457,"MEAN_MOTION_DDOT":0}]
